{"type": "FeatureCollection", "features": [ {"type": "Feature", "properties": {"norad_id": 39111, "name": "COSMOS 2251 DEB", "group": "cosmos-2251-debris", "lat": -16.957407057131714, "lon": -144.07756435339206, "alt_km": 532.5055239764943, "timestamp": "2025-12-17T15:50:10.180269+00:00", "meta": {"OBJECT_NAME": "COSMOS 2251 DEB", "OBJECT_ID": "1993-036BUA", "EPOCH": "2025-12-01T22:58:55.551360", "MEAN_MOTION": 15.11912111, "ECCENTRICITY": 0.00109111, "INCLINATION": 74.0059, "RA_OF_ASC_NODE": 63.5328, "ARG_OF_PERICENTER": 39.1207, "MEAN_ANOMALY": 321.0773, "EPHEMERIS_TYPE": 0, "CLASSIFICATION_TYPE": "U", "NORAD_CAT_ID": 39111, "ELEMENT_SET_NO": 999, "REV_AT_EPOCH": 8982, "BSTAR": 0.0056424119, "MEAN_MOTION_DOT": 0.00098096, "MEAN_MOTION_DDOT": 0}, "tle": {"line1": "1 39111U 93036BUA 25335.95758740  .00098096  00000+0  56424-2 0  9993", "line2": "2 39111  74.0059  63.5328 0010911  39.1207 321.0773 15.11912111 89826"}}, "geometry": {"type": "Point", "coordinates": [-144.07756435339206, -16.957407057131714]}}, {"type": "Feature", "properties": {"norad_id": 39546, "name": "COSMOS 2251 DEB", "group": "cosmos-2251-debris", "lat": -73.39162151177487, "lon": 52.692384580430996, "alt_km": 567.9373825764251, "timestamp": "2025-12-17T15:50:10.180279+00:00", "meta": {"OBJECT_NAME": "COSMOS 2251 DEB", "OBJECT_ID": "1993-036BUC", "EPOCH": "2025-12-16T03:12:27.285696", "MEAN_MOTION": 14.92150087, "ECCENTRICITY": 0.00441533, "INCLINATION": 73.9967, "RA_OF_ASC_NODE": 129.9626, "ARG_OF_PERICENTER": 289.5542, "MEAN_ANOMALY": 70.0875, "EPHEMERIS_TYPE": 0, "CLASSIFICATION_TYPE": "U", "NORAD_CAT_ID": 39546, "ELEMENT_SET_NO": 999, "REV_AT_EPOCH": 64487, "BSTAR": 0.001062699, "MEAN_MOTION_DOT": 0.00010998, "MEAN_MOTION_DDOT": 0}, "tle": {"line1": "1 39546U 93036BUC 25350.13364914  .00010998  00000+0  10627-2 0  9998", "line2": "2 39546  73.9967 129.9626 0044153 289.5542  70.0875 14.92150087644870"}}, "geometry": {"type": "Point", "coordinates": [52.692384580430996, -73.39162151177487]}}, {"type": "Feature", "properties": {"norad_id": 39547, "name": "COSMOS 2251 DEB", "group": "cosmos-2251-debris", "lat": 67.93763635469236, "lon": 143.2419869365069, "alt_km": 549.3713255647917, "timestamp": "2025-12-17T15:50:10.180291+00:00", "meta": {"OBJECT_NAME": "COSMOS 2251 DEB", "OBJECT_ID": "1993-036BUD", "EPOCH": "2025-12-16T19:23:25.702368", "MEAN_MOTION": 15.03569393, "ECCENTRICITY": 0.00056026, "INCLINATION": 74.0017, "RA_OF_ASC_NODE": 10.0509, "ARG_OF_PERICENTER": 8.7328, "MEAN_ANOMALY": 167.2284, "EPHEMERIS_TYPE": 0, "CLASSIFICATION_TYPE": "U", "NORAD_CAT_ID": 39547, "ELEMENT_SET_NO": 999, "REV_AT_EPOCH": 64086, "BSTAR": 0.0020053812, "MEAN_MOTION_DOT": 0.00027477, "MEAN_MOTION_DDOT": 0}, "tle": {"line1": "1 39547U 93036BUD 25350.80793637  .00027477  00000+0  20054-2 0  9996", "line2": "2 39547  74.0017  10.0509 0005602   8.7328 167.2284 15.03569393640863"}}, "geometry": {"type": "Point", "coordinates": [143.2419869365069, 67.93763635469236]}}, {"type": "Feature", "properties": {"norad_id": 39553, "name": "COSMOS 2251 DEB", "group": "cosmos-2251-debris", "lat": -57.92213814255422, "lon": 168.68777143643626, "alt_km": 1020.3357854682672, "timestamp": "2025-12-17T15:50:10.180301+00:00", "meta": {"OBJECT_NAME": "COSMOS 2251 DEB", "OBJECT_ID": "1993-036BUK", "EPOCH": "2025-12-07T06:00:50.455872", "MEAN_MOTION": 13.99876591, "ECCENTRICITY": 0.02014092, "INCLINATION": 74.0304, "RA_OF_ASC_NODE": 339.5232, "ARG_OF_PERICENTER": 116.8065, "MEAN_ANOMALY": 245.3825, "EPHEMERIS_TYPE": 0, "CLASSIFICATION_TYPE": "U", "NORAD_CAT_ID": 39553, "ELEMENT_SET_NO": 999, "REV_AT_EPOCH": 75540, "BSTAR": 0.00088887208, "MEAN_MOTION_DOT": 1.532e-05, "MEAN_MOTION_DDOT": 0}, "tle": {"line1": "1 39553U 93036BUK 25341.25058398  .00001532  00000+0  88887-3 0  9993", "line2": "2 39553  74.0304 339.5232 0201409 116.8065 245.3825 13.99876591755403"}}, "geometry": {"type": "Point", "coordinates": [168.68777143643626, -57.92213814255422]}}, {"type": "Feature", "properties": {"norad_id": 39554, "name": "COSMOS 2251 DEB", "group": "cosmos-2251-debris", "lat": 66.19945519051787, "lon": -65.04018829251287, "alt_km": 523.4032512816084, "timestamp": "2025-12-17T15:50:10.180311+00:00", "meta": {"OBJECT_NAME": "COSMOS 2251 DEB", "OBJECT_ID": "1993-036BUL", "EPOCH": "2025-12-10T06:12:03.924864", "MEAN_MOTION": 15.10130993, "ECCENTRICITY": 0.0002993, "INCLINATION": 74.0187, "RA_OF_ASC_NODE": 269.7383, "ARG_OF_PERICENTER": 74.7531, "MEAN_ANOMALY": 81.5927, "EPHEMERIS_TYPE": 0, "CLASSIFICATION_TYPE": "U", "NORAD_CAT_ID": 39554, "ELEMENT_SET_NO": 999, "REV_AT_EPOCH": 64347, "BSTAR": 0.0046896, "MEAN_MOTION_DOT": 0.000773, "MEAN_MOTION_DDOT": 0}, "tle": {"line1": "1 39554U 93036BUL 25344.25837876  .00077300  00000+0  46896-2 0  9992", "line2": "2 39554  74.0187 269.7383 0002993  74.7531  81.5927 15.10130993643471"}}, "geometry": {"type": "Point", "coordinates": [-65.04018829251287, 66.19945519051787]}}, {"type": "Feature", "properties": {"norad_id": 39583, "name": "COSMOS 2251 DEB", "group": "cosmos-2251-debris", "lat": -56.4689385483156, "lon": -148.01269604088642, "alt_km": 635.5324043319288, "timestamp": "2025-12-17T15:50:10.180321+00:00", "meta": {"OBJECT_NAME": "COSMOS 2251 DEB", "OBJECT_ID": "1993-036BUN", "EPOCH": "2025-12-16T23:39:55.771488", "MEAN_MOTION": 14.60519983, "ECCENTRICITY": 0.01368963, "INCLINATION": 73.9326, "RA_OF_ASC_NODE": 239.0626, "ARG_OF_PERICENTER": 351.6051, "MEAN_ANOMALY": 8.2822, "EPHEMERIS_TYPE": 0, "CLASSIFICATION_TYPE": "U", "NORAD_CAT_ID": 39583, "ELEMENT_SET_NO": 999, "REV_AT_EPOCH": 61841, "BSTAR": 0.0012891969, "MEAN_MOTION_DOT": 7.116e-05, "MEAN_MOTION_DDOT": 0}, "tle": {"line1": "1 39583U 93036BUN 25350.98606217  .00007116  00000+0  12892-2 0  9991", "line2": "2 39583  73.9326 239.0626 0136896 351.6051   8.2822 14.60519983618410"}}, "geometry": {"type": "Point", "coordinates": [-148.01269604088642, -56.4689385483156]}}, {"type": "Feature", "properties": {"norad_id": 39585, "name": "COSMOS 2251 DEB", "group": "cosmos-2251-debris", "lat": 73.39937337879161, "lon": 38.253487810069736, "alt_km": 655.9339748324055, "timestamp": "2025-12-17T15:50:10.180332+00:00", "meta": {"OBJECT_NAME": "COSMOS 2251 DEB", "OBJECT_ID": "1993-036BUQ", "EPOCH": "2025-12-16T03:11:50.440416", "MEAN_MOTION": 14.58677484, "ECCENTRICITY": 0.0065684, "INCLINATION": 74.0421, "RA_OF_ASC_NODE": 294.8565, "ARG_OF_PERICENTER": 54.8478, "MEAN_ANOMALY": 305.8817, "EPHEMERIS_TYPE": 0, "CLASSIFICATION_TYPE": "U", "NORAD_CAT_ID": 39585, "ELEMENT_SET_NO": 999, "REV_AT_EPOCH": 62570, "BSTAR": 0.00027915546, "MEAN_MOTION_DOT": 1.31e-05, "MEAN_MOTION_DDOT": 0}, "tle": {"line1": "1 39585U 93036BUQ 25350.13322269  .00001310  00000+0  27916-3 0  9996", "line2": "2 39585  74.0421 294.8565 0065684  54.8478 305.8817 14.58677484625700"}}, "geometry": {"type": "Point", "coordinates": [38.253487810069736, 73.39937337879161]}}, {"type": "Feature", "properties": {"norad_id": 39586, "name": "COSMOS 2251 DEB", "group": "cosmos-2251-debris", "lat": -51.39825522132285, "lon": -161.63631957644296, "alt_km": 777.9806571069694, "timestamp": "2025-12-17T15:50:10.180342+00:00", "meta": {"OBJECT_NAME": "COSMOS 2251 DEB", "OBJECT_ID": "1993-036BUR", "EPOCH": "2025-12-15T23:50:08.053728", "MEAN_MOTION": 14.21232237, "ECCENTRICITY": 0.01008868, "INCLINATION": 74.0082, "RA_OF_ASC_NODE": 222.4068, "ARG_OF_PERICENTER": 356.2296, "MEAN_ANOMALY": 66.1426, "EPHEMERIS_TYPE": 0, "CLASSIFICATION_TYPE": "U", "NORAD_CAT_ID": 39586, "ELEMENT_SET_NO": 999, "REV_AT_EPOCH": 61018, "BSTAR": 0.00043436803, "MEAN_MOTION_DOT": 9.7e-06, "MEAN_MOTION_DDOT": 0}, "tle": {"line1": "1 39586U 93036BUR 25349.99314877  .00000970  00000+0  43437-3 0  9992", "line2": "2 39586  74.0082 222.4068 0100886 356.2296  66.1426 14.21232237610182"}}, "geometry": {"type": "Point", "coordinates": [-161.63631957644296, -51.39825522132285]}}, {"type": "Feature", "properties": {"norad_id": 39591, "name": "COSMOS 2251 DEB", "group": "cosmos-2251-debris", "lat": -18.578346853054185, "lon": 63.16506442104419, "alt_km": 775.2907917092007, "timestamp": "2025-12-17T15:50:10.180352+00:00", "meta": {"OBJECT_NAME": "COSMOS 2251 DEB", "OBJECT_ID": "1993-036BUW", "EPOCH": "2025-12-16T09:29:52.077696", "MEAN_MOTION": 14.41820254, "ECCENTRICITY": 0.00293402, "INCLINATION": 74.0195, "RA_OF_ASC_NODE": 239.9819, "ARG_OF_PERICENTER": 351.9652, "MEAN_ANOMALY": 128.7206, "EPHEMERIS_TYPE": 0, "CLASSIFICATION_TYPE": "U", "NORAD_CAT_ID": 39591, "ELEMENT_SET_NO": 999, "REV_AT_EPOCH": 61829, "BSTAR": 0.00026614281, "MEAN_MOTION_DOT": 8.48e-06, "MEAN_MOTION_DDOT": 0}, "tle": {"line1": "1 39591U 93036BUW 25350.39574164  .00000848  00000+0  26614-3 0  9993", "line2": "2 39591  74.0195 239.9819 0029340 351.9652 128.7206 14.41820254618298"}}, "geometry": {"type": "Point", "coordinates": [63.16506442104419, -18.578346853054185]}}, {"type": "Feature", "properties": {"norad_id": 40218, "name": "COSMOS 2251 DEB", "group": "cosmos-2251-debris", "lat": 74.0195684192389, "lon": -30.695582674005244, "alt_km": 753.167845599125, "timestamp": "2025-12-17T15:50:10.180362+00:00", "meta": {"OBJECT_NAME": "COSMOS 2251 DEB", "OBJECT_ID": "1993-036BUX", "EPOCH": "2025-12-14T10:48:31.251744", "MEAN_MOTION": 14.41597705, "ECCENTRICITY": 0.00168728, "INCLINATION": 74.0298, "RA_OF_ASC_NODE": 245.6562, "ARG_OF_PERICENTER": 328.6, "MEAN_ANOMALY": 31.4147, "EPHEMERIS_TYPE": 0, "CLASSIFICATION_TYPE": "U", "NORAD_CAT_ID": 40218, "ELEMENT_SET_NO": 999, "REV_AT_EPOCH": 58886, "BSTAR": 0.00046023204, "MEAN_MOTION_DOT": 1.474e-05, "MEAN_MOTION_DDOT": 0}, "tle": {"line1": "1 40218U 93036BUX 25348.45036171  .00001474  00000+0  46023-3 0  9998", "line2": "2 40218  74.0298 245.6562 0016872 328.6000  31.4147 14.41597705588868"}}, "geometry": {"type": "Point", "coordinates": [-30.695582674005244, 74.0195684192389]}}]}